[
  {
    "OBJECT_NAME": "STARLINK-4692",
    "OBJECT_ID": "2022-104R",
    "EPOCH": "2025-06-14T16:32:07.753632",
    "MEAN_MOTION": 15.08841099,
    "ECCENTRICITY": 0.0001468,
    "INCLINATION": 53.218,
    "RA_OF_ASC_NODE": 2.397,
    "ARG_OF_PERICENTER": 94.6065,
    "MEAN_ANOMALY": 265.5095,
    "EPHEMERIS_TYPE": 0,
    "CLASSIFICATION_TYPE": "U",
    "NORAD_CAT_ID": 53603,
    "ELEMENT_SET_NO": 999,
    "REV_AT_EPOCH": 15453,
    "BSTAR": 1.8835e-06,
    "MEAN_MOTION_DOT": -2.58e-06,
    "MEAN_MOTION_DDOT": 0
  },
  {
    "OBJECT_NAME": "STARLINK-4690",
    "OBJECT_ID": "2022-104S",
    "EPOCH": "2025-06-14T06:17:21.400800",
    "MEAN_MOTION": 15.08851532,
    "ECCENTRICITY": 0.0001154,
    "INCLINATION": 53.2183,
    "RA_OF_ASC_NODE": 3.9968,
    "ARG_OF_PERICENTER": 82.665,
    "MEAN_ANOMALY": 277.4474,
    "EPHEMERIS_TYPE": 0,
    "CLASSIFICATION_TYPE": "U",
    "NORAD_CAT_ID": 53604,
    "ELEMENT_SET_NO": 999,
    "REV_AT_EPOCH": 15516,
    "BSTAR": 0.00022865,
    "MEAN_MOTION_DOT": 3.354e-05,
    "MEAN_MOTION_DDOT": 0
  },
  {
    "OBJECT_NAME": "STARLINK-4693",
    "OBJECT_ID": "2022-104T",
    "EPOCH": "2025-06-14T14:05:40.575552",
    "MEAN_MOTION": 15.08830803,
    "ECCENTRICITY": 0.0001399,
    "INCLINATION": 53.2188,
    "RA_OF_ASC_NODE": 7.4544,
    "ARG_OF_PERICENTER": 95.9336,
    "MEAN_ANOMALY": 264.1816,
    "EPHEMERIS_TYPE": 0,
    "CLASSIFICATION_TYPE": "U",
    "NORAD_CAT_ID": 53605,
    "ELEMENT_SET_NO": 999,
    "REV_AT_EPOCH": 15514,
    "BSTAR": -4.1549e-05,
    "MEAN_MOTION_DOT": -9.49e-06,
    "MEAN_MOTION_DDOT": 0
  },
  {
    "OBJECT_NAME": "STARLINK-4590",
    "OBJECT_ID": "2022-104U",
    "EPOCH": "2025-06-14T19:35:36.520224",
    "MEAN_MOTION": 15.08831304,
    "ECCENTRICITY": 0.0001378,
    "INCLINATION": 53.2192,
    "RA_OF_ASC_NODE": 356.7632,
    "ARG_OF_PERICENTER": 93.67,
    "MEAN_ANOMALY": 266.4449,
    "EPHEMERIS_TYPE": 0,
    "CLASSIFICATION_TYPE": "U",
    "NORAD_CAT_ID": 53606,
    "ELEMENT_SET_NO": 999,
    "REV_AT_EPOCH": 15462,
    "BSTAR": -1.5675e-05,
    "MEAN_MOTION_DOT": -5.37e-06,
    "MEAN_MOTION_DDOT": 0
  },
  {
    "OBJECT_NAME": "STARLINK-4591",
    "OBJECT_ID": "2022-104V",
    "EPOCH": "2025-06-14T19:26:59.308224",
    "MEAN_MOTION": 15.0883516,
    "ECCENTRICITY": 0.0001185,
    "INCLINATION": 53.2185,
    "RA_OF_ASC_NODE": 1.731,
    "ARG_OF_PERICENTER": 88.3287,
    "MEAN_ANOMALY": 271.7841,
    "EPHEMERIS_TYPE": 0,
    "CLASSIFICATION_TYPE": "U",
    "NORAD_CAT_ID": 53607,
    "ELEMENT_SET_NO": 999,
    "REV_AT_EPOCH": 15455,
    "BSTAR": 1.6116e-05,
    "MEAN_MOTION_DOT": -3.1e-07,
    "MEAN_MOTION_DDOT": 0
  },
  {
    "OBJECT_NAME": "STARLINK-4647",
    "OBJECT_ID": "2022-104W",
    "EPOCH": "2025-06-14T16:35:27.297024",
    "MEAN_MOTION": 15.08828012,
    "ECCENTRICITY": 0.0001772,
    "INCLINATION": 53.2196,
    "RA_OF_ASC_NODE": 357.4073,
    "ARG_OF_PERICENTER": 117.5776,
    "MEAN_ANOMALY": 242.5397,
    "EPHEMERIS_TYPE": 0,
    "CLASSIFICATION_TYPE": "U",
    "NORAD_CAT_ID": 53608,
    "ELEMENT_SET_NO": 999,
    "REV_AT_EPOCH": 15460,
    "BSTAR": -1.6772e-05,
    "MEAN_MOTION_DOT": -5.55e-06,
    "MEAN_MOTION_DDOT": 0
  },
  {
    "OBJECT_NAME": "STARLINK-4660",
    "OBJECT_ID": "2022-104X",
    "EPOCH": "2025-06-14T05:56:07.156320",
    "MEAN_MOTION": 15.08852787,
    "ECCENTRICITY": 0.000133,
    "INCLINATION": 53.2185,
    "RA_OF_ASC_NODE": 3.9035,
    "ARG_OF_PERICENTER": 92.7952,
    "MEAN_ANOMALY": 267.3193,
    "EPHEMERIS_TYPE": 0,
    "CLASSIFICATION_TYPE": "U",
    "NORAD_CAT_ID": 53609,
    "ELEMENT_SET_NO": 999,
    "REV_AT_EPOCH": 15516,
    "BSTAR": 0.00016697,
    "MEAN_MOTION_DOT": 2.371e-05,
    "MEAN_MOTION_DDOT": 0
  },
  {
    "OBJECT_NAME": "STARLINK-4610",
    "OBJECT_ID": "2022-104Y",
    "EPOCH": "2025-06-14T19:36:58.972608",
    "MEAN_MOTION": 15.0884089,
    "ECCENTRICITY": 0.0001531,
    "INCLINATION": 53.218,
    "RA_OF_ASC_NODE": 356.7685,
    "ARG_OF_PERICENTER": 89.6415,
    "MEAN_ANOMALY": 270.4753,
    "EPHEMERIS_TYPE": 0,
    "CLASSIFICATION_TYPE": "U",
    "NORAD_CAT_ID": 53610,
    "ELEMENT_SET_NO": 999,
    "REV_AT_EPOCH": 15462,
    "BSTAR": 1.9672e-05,
    "MEAN_MOTION_DOT": 2.5e-07,
    "MEAN_MOTION_DDOT": 0
  },
  {
    "OBJECT_NAME": "STARLINK-4650",
    "OBJECT_ID": "2022-104Z",
    "EPOCH": "2025-06-14T14:47:16.231776",
    "MEAN_MOTION": 15.68578933,
    "ECCENTRICITY": 0.0004403,
    "INCLINATION": 53.1817,
    "RA_OF_ASC_NODE": 289.4808,
    "ARG_OF_PERICENTER": 327.8645,
    "MEAN_ANOMALY": 32.2103,
    "EPHEMERIS_TYPE": 0,
    "CLASSIFICATION_TYPE": "U",
    "NORAD_CAT_ID": 53611,
    "ELEMENT_SET_NO": 999,
    "REV_AT_EPOCH": 15624,
    "BSTAR": 0.0012595,
    "MEAN_MOTION_DOT": 0.0014772,
    "MEAN_MOTION_DDOT": 0
  },
  {
    "OBJECT_NAME": "STARLINK-4658",
    "OBJECT_ID": "2022-104AA",
    "EPOCH": "2025-06-14T13:08:45.400416",
    "MEAN_MOTION": 15.0883454,
    "ECCENTRICITY": 0.0001554,
    "INCLINATION": 53.219,
    "RA_OF_ASC_NODE": 357.9286,
    "ARG_OF_PERICENTER": 100.4195,
    "MEAN_ANOMALY": 259.6973,
    "EPHEMERIS_TYPE": 0,
    "CLASSIFICATION_TYPE": "U",
    "NORAD_CAT_ID": 53612,
    "ELEMENT_SET_NO": 999,
    "REV_AT_EPOCH": 15515,
    "BSTAR": -1.9257e-05,
    "MEAN_MOTION_DOT": -5.94e-06,
    "MEAN_MOTION_DDOT": 0
  },
  {
    "OBJECT_NAME": "STARLINK-4655",
    "OBJECT_ID": "2022-104AB",
    "EPOCH": "2025-06-14T13:19:22.039680",
    "MEAN_MOTION": 15.08836076,
    "ECCENTRICITY": 0.0001361,
    "INCLINATION": 53.219,
    "RA_OF_ASC_NODE": 357.9755,
    "ARG_OF_PERICENTER": 91.8711,
    "MEAN_ANOMALY": 268.2437,
    "EPHEMERIS_TYPE": 0,
    "CLASSIFICATION_TYPE": "U",
    "NORAD_CAT_ID": 53613,
    "ELEMENT_SET_NO": 999,
    "REV_AT_EPOCH": 15515,
    "BSTAR": 3.8625e-05,
    "MEAN_MOTION_DOT": 3.27e-06,
    "MEAN_MOTION_DDOT": 0
  },
  {
    "OBJECT_NAME": "STARLINK-4605",
    "OBJECT_ID": "2022-104AE",
    "EPOCH": "2025-06-14T17:50:54.708864",
    "MEAN_MOTION": 15.08832948,
    "ECCENTRICITY": 0.0001636,
    "INCLINATION": 53.2207,
    "RA_OF_ASC_NODE": 346.8533,
    "ARG_OF_PERICENTER": 110.169,
    "MEAN_ANOMALY": 249.9478,
    "EPHEMERIS_TYPE": 0,
    "CLASSIFICATION_TYPE": "U",
    "NORAD_CAT_ID": 53616,
    "ELEMENT_SET_NO": 999,
    "REV_AT_EPOCH": 15475,
    "BSTAR": -2.8641e-05,
    "MEAN_MOTION_DOT": -7.44e-06,
    "MEAN_MOTION_DDOT": 0
  },
  {
    "OBJECT_NAME": "STARLINK-4609",
    "OBJECT_ID": "2022-104AH",
    "EPOCH": "2025-06-14T19:19:41.376864",
    "MEAN_MOTION": 15.08838369,
    "ECCENTRICITY": 0.0001788,
    "INCLINATION": 53.2176,
    "RA_OF_ASC_NODE": 356.6957,
    "ARG_OF_PERICENTER": 94.0622,
    "MEAN_ANOMALY": 266.0575,
    "EPHEMERIS_TYPE": 0,
    "CLASSIFICATION_TYPE": "U",
    "NORAD_CAT_ID": 53619,
    "ELEMENT_SET_NO": 999,
    "REV_AT_EPOCH": 15462,
    "BSTAR": -4.3376e-05,
    "MEAN_MOTION_DOT": -9.78e-06,
    "MEAN_MOTION_DDOT": 0
  },
  {
    "OBJECT_NAME": "STARLINK-4615",
    "OBJECT_ID": "2022-104AJ",
    "EPOCH": "2025-06-14T18:58:29.638848",
    "MEAN_MOTION": 15.08822168,
    "ECCENTRICITY": 0.0001528,
    "INCLINATION": 53.2178,
    "RA_OF_ASC_NODE": 356.6056,
    "ARG_OF_PERICENTER": 83.5908,
    "MEAN_ANOMALY": 276.5258,
    "EPHEMERIS_TYPE": 0,
    "CLASSIFICATION_TYPE": "U",
    "NORAD_CAT_ID": 53620,
    "ELEMENT_SET_NO": 999,
    "REV_AT_EPOCH": 15462,
    "BSTAR": -0.00010846,
    "MEAN_MOTION_DOT": -2.013e-05,
    "MEAN_MOTION_DDOT": 0
  },
  {
    "OBJECT_NAME": "STARLINK-4608",
    "OBJECT_ID": "2022-104AK",
    "EPOCH": "2025-06-14T19:14:23.131968",
    "MEAN_MOTION": 15.0884348,
    "ECCENTRICITY": 0.0001397,
    "INCLINATION": 53.2183,
    "RA_OF_ASC_NODE": 356.6724,
    "ARG_OF_PERICENTER": 88.6871,
    "MEAN_ANOMALY": 271.4281,
    "EPHEMERIS_TYPE": 0,
    "CLASSIFICATION_TYPE": "U",
    "NORAD_CAT_ID": 53621,
    "ELEMENT_SET_NO": 999,
    "REV_AT_EPOCH": 15462,
    "BSTAR": -3.3707e-05,
    "MEAN_MOTION_DOT": -8.24e-06,
    "MEAN_MOTION_DDOT": 0
  },
  {
    "OBJECT_NAME": "STARLINK-4568",
    "OBJECT_ID": "2022-104AL",
    "EPOCH": "2025-06-14T05:43:32.395296",
    "MEAN_MOTION": 15.08837157,
    "ECCENTRICITY": 0.0001296,
    "INCLINATION": 53.2192,
    "RA_OF_ASC_NODE": 358.8472,
    "ARG_OF_PERICENTER": 89.1933,
    "MEAN_ANOMALY": 270.9207,
    "EPHEMERIS_TYPE": 0,
    "CLASSIFICATION_TYPE": "U",
    "NORAD_CAT_ID": 53622,
    "ELEMENT_SET_NO": 999,
    "REV_AT_EPOCH": 15522,
    "BSTAR": 3.1404e-05,
    "MEAN_MOTION_DOT": 2.12e-06,
    "MEAN_MOTION_DDOT": 0
  },
  {
    "OBJECT_NAME": "STARLINK-4573",
    "OBJECT_ID": "2022-104AM",
    "EPOCH": "2025-06-14T12:42:15.516864",
    "MEAN_MOTION": 15.0882333,
    "ECCENTRICITY": 0.0001222,
    "INCLINATION": 53.2192,
    "RA_OF_ASC_NODE": 357.8148,
    "ARG_OF_PERICENTER": 79.029,
    "MEAN_ANOMALY": 281.084,
    "EPHEMERIS_TYPE": 0,
    "CLASSIFICATION_TYPE": "U",
    "NORAD_CAT_ID": 53623,
    "ELEMENT_SET_NO": 999,
    "REV_AT_EPOCH": 15526,
    "BSTAR": -0.00011719,
    "MEAN_MOTION_DOT": -2.152e-05,
    "MEAN_MOTION_DDOT": 0
  },
  {
    "OBJECT_NAME": "STARLINK-4596",
    "OBJECT_ID": "2022-104AN",
    "EPOCH": "2025-06-14T12:26:18.877056",
    "MEAN_MOTION": 15.08835174,
    "ECCENTRICITY": 0.0001564,
    "INCLINATION": 53.2184,
    "RA_OF_ASC_NODE": 357.748,
    "ARG_OF_PERICENTER": 82.6718,
    "MEAN_ANOMALY": 277.4452,
    "EPHEMERIS_TYPE": 0,
    "CLASSIFICATION_TYPE": "U",
    "NORAD_CAT_ID": 53624,
    "ELEMENT_SET_NO": 999,
    "REV_AT_EPOCH": 15526,
    "BSTAR": -6.6825e-06,
    "MEAN_MOTION_DOT": -3.94e-06,
    "MEAN_MOTION_DDOT": 0
  }
]